{
  "links" : {
    "next" : "https://api.nasa.gov/neo/rest/v1/feed?start_date=2007-06-16&end_date=2007-06-16&detailed=true&api_key=t0TVs3DtDT2H8Oy2Zy8m2eVrNsAVKAexjcZXUckd",
    "prev" : "https://api.nasa.gov/neo/rest/v1/feed?start_date=2007-06-14&end_date=2007-06-14&detailed=true&api_key=t0TVs3DtDT2H8Oy2Zy8m2eVrNsAVKAexjcZXUckd",
    "self" : "https://api.nasa.gov/neo/rest/v1/feed?start_date=2007-06-15&end_date=2007-06-15&detailed=true&api_key=t0TVs3DtDT2H8Oy2Zy8m2eVrNsAVKAexjcZXUckd"
  },
  "element_count" : 6,
  "near_earth_objects" : {
    "2007-06-15" : [ {
      "links" : {
        "self" : "https://api.nasa.gov/neo/rest/v1/neo/3378562?api_key=t0TVs3DtDT2H8Oy2Zy8m2eVrNsAVKAexjcZXUckd"
      },
      "neo_reference_id" : "3378562",
      "name" : "(2007 MH)",
      "nasa_jpl_url" : "http://ssd.jpl.nasa.gov/sbdb.cgi?sstr=3378562",
      "absolute_magnitude_h" : 20.9,
      "estimated_diameter" : {
        "kilometers" : {
          "estimated_diameter_min" : 0.1756123185,
          "estimated_diameter_max" : 0.3926810818
        },
        "meters" : {
          "estimated_diameter_min" : 175.6123184804,
          "estimated_diameter_max" : 392.6810818086
        },
        "miles" : {
          "estimated_diameter_min" : 0.1091204019,
          "estimated_diameter_max" : 0.2440006365
        },
        "feet" : {
          "estimated_diameter_min" : 576.1559189633,
          "estimated_diameter_max" : 1288.3238004408
        }
      },
      "is_potentially_hazardous_asteroid" : false,
      "close_approach_data" : [ {
        "close_approach_date" : "2007-06-15",
        "epoch_date_close_approach" : 1181890800000,
        "relative_velocity" : {
          "kilometers_per_second" : "11.6445462754",
          "kilometers_per_hour" : "41920.3665914702",
          "miles_per_hour" : "26047.6855634611"
        },
        "miss_distance" : {
          "astronomical" : "0.125619163",
          "lunar" : "48.865852356",
          "kilometers" : "18792358",
          "miles" : "11677030"
        },
        "orbiting_body" : "Earth"
      } ],
      "orbital_data" : {
        "orbit_id" : "19",
        "orbit_determination_date" : "2017-04-06 09:06:21",
        "orbit_uncertainty" : "6",
        "minimum_orbit_intersection" : ".114409",
        "jupiter_tisserand_invariant" : "4.369",
        "epoch_osculation" : "2458000.5",
        "eccentricity" : ".3287380484726712",
        "semi_major_axis" : "1.526040934180432",
        "inclination" : "20.31261587125325",
        "ascending_node_longitude" : "274.0847866086553",
        "orbital_period" : "688.569372877948",
        "perihelion_distance" : "1.024373215588545",
        "perihelion_argument" : "303.3861385457245",
        "aphelion_distance" : "2.027708652772319",
        "perihelion_time" : "2457662.353060167192",
        "mean_anomaly" : "176.7910440614217",
        "mean_motion" : ".5228231376242342",
        "equinox" : "J2000"
      }
    }, {
      "links" : {
        "self" : "https://api.nasa.gov/neo/rest/v1/neo/3753662?api_key=t0TVs3DtDT2H8Oy2Zy8m2eVrNsAVKAexjcZXUckd"
      },
      "neo_reference_id" : "3753662",
      "name" : "(2016 LT)",
      "nasa_jpl_url" : "http://ssd.jpl.nasa.gov/sbdb.cgi?sstr=3753662",
      "absolute_magnitude_h" : 21.7,
      "estimated_diameter" : {
        "kilometers" : {
          "estimated_diameter_min" : 0.1214940408,
          "estimated_diameter_max" : 0.2716689341
        },
        "meters" : {
          "estimated_diameter_min" : 121.4940407996,
          "estimated_diameter_max" : 271.6689340891
        },
        "miles" : {
          "estimated_diameter_min" : 0.0754928736,
          "estimated_diameter_max" : 0.1688071972
        },
        "feet" : {
          "estimated_diameter_min" : 398.6025088171,
          "estimated_diameter_max" : 891.3023057169
        }
      },
      "is_potentially_hazardous_asteroid" : false,
      "close_approach_data" : [ {
        "close_approach_date" : "2007-06-15",
        "epoch_date_close_approach" : 1181890800000,
        "relative_velocity" : {
          "kilometers_per_second" : "16.6485745423",
          "kilometers_per_hour" : "59934.8683521515",
          "miles_per_hour" : "37241.196393591"
        },
        "miss_distance" : {
          "astronomical" : "0.285519346",
          "lunar" : "111.0670166016",
          "kilometers" : "42713084",
          "miles" : "26540680"
        },
        "orbiting_body" : "Earth"
      } ],
      "orbital_data" : {
        "orbit_id" : "10",
        "orbit_determination_date" : "2017-04-06 08:25:37",
        "orbit_uncertainty" : "4",
        "minimum_orbit_intersection" : ".0644987",
        "jupiter_tisserand_invariant" : "4.495",
        "epoch_osculation" : "2458000.5",
        "eccentricity" : ".3617070103377484",
        "semi_major_axis" : "1.481719875479256",
        "inclination" : "8.924496062757274",
        "ascending_node_longitude" : "80.55848095844804",
        "orbital_period" : "658.7908924203782",
        "perihelion_distance" : ".9457714091616335",
        "perihelion_argument" : "251.3039822987945",
        "aphelion_distance" : "2.017668341796879",
        "perihelion_time" : "2458266.820849985015",
        "mean_anomaly" : "214.4674689682464",
        "mean_motion" : ".5464556419069042",
        "equinox" : "J2000"
      }
    }, {
      "links" : {
        "self" : "https://api.nasa.gov/neo/rest/v1/neo/3377483?api_key=t0TVs3DtDT2H8Oy2Zy8m2eVrNsAVKAexjcZXUckd"
      },
      "neo_reference_id" : "3377483",
      "name" : "(2007 KD)",
      "nasa_jpl_url" : "http://ssd.jpl.nasa.gov/sbdb.cgi?sstr=3377483",
      "absolute_magnitude_h" : 20.6,
      "estimated_diameter" : {
        "kilometers" : {
          "estimated_diameter_min" : 0.2016299194,
          "estimated_diameter_max" : 0.4508582062
        },
        "meters" : {
          "estimated_diameter_min" : 201.6299194428,
          "estimated_diameter_max" : 450.8582061718
        },
        "miles" : {
          "estimated_diameter_min" : 0.1252869847,
          "estimated_diameter_max" : 0.2801502144
        },
        "feet" : {
          "estimated_diameter_min" : 661.5155049046,
          "estimated_diameter_max" : 1479.1936371367
        }
      },
      "is_potentially_hazardous_asteroid" : false,
      "close_approach_data" : [ {
        "close_approach_date" : "2007-06-15",
        "epoch_date_close_approach" : 1181890800000,
        "relative_velocity" : {
          "kilometers_per_second" : "5.4976721855",
          "kilometers_per_hour" : "19791.6198679625",
          "miles_per_hour" : "12297.7429118459"
        },
        "miss_distance" : {
          "astronomical" : "0.2633252387",
          "lunar" : "102.4335174561",
          "kilometers" : "39392896",
          "miles" : "24477610"
        },
        "orbiting_body" : "Earth"
      } ],
      "orbital_data" : {
        "orbit_id" : "12",
        "orbit_determination_date" : "2017-04-06 09:06:25",
        "orbit_uncertainty" : "2",
        "minimum_orbit_intersection" : ".202698",
        "jupiter_tisserand_invariant" : "3.750",
        "epoch_osculation" : "2458000.5",
        "eccentricity" : ".4179143252381325",
        "semi_major_axis" : "1.958675254999497",
        "inclination" : "11.21025135167596",
        "ascending_node_longitude" : "44.05173906795881",
        "orbital_period" : "1001.248969000277",
        "perihelion_distance" : "1.140116807445755",
        "perihelion_argument" : "242.102449510332",
        "aphelion_distance" : "2.777233702553239",
        "perihelion_time" : "2458305.077803326054",
        "mean_anomaly" : "250.4887669378973",
        "mean_motion" : ".3595509320318714",
        "equinox" : "J2000"
      }
    } ]
  }
}